XRISM                   
1 57800U 23137A   24094.53432979  .00004068  00000+0  31140-3 0  9996
2 57800  31.0026 127.4548 0010260 189.3518 170.6927 15.00161044 31388
